[{"OBJECT_NAME":"IRIDIUM 33 DEB","OBJECT_ID":"1997-051RA","EPOCH":"2026-03-14T00:37:20.126496","MEAN_MOTION":14.69309444,"ECCENTRICITY":0.00130717,"INCLINATION":86.3586,"RA_OF_ASC_NODE":328.3235,"ARG_OF_PERICENTER":26.1262,"MEAN_ANOMALY":334.061,"EPHEMERIS_TYPE":0,"CLASSIFICATION_TYPE":"U","NORAD_CAT_ID":35628,"ELEMENT_SET_NO":999,"REV_AT_EPOCH":87786,"BSTAR":0.0012653487,"MEAN_MOTION_DOT":7.501e-5,"MEAN_MOTION_DDOT":0},{"OBJECT_NAME":"IRIDIUM 33 DEB","OBJECT_ID":"1997-051RD","EPOCH":"2026-03-12T18:01:32.170656","MEAN_MOTION":14.47642116,"ECCENTRICITY":0.00164792,"INCLINATION":86.3717,"RA_OF_ASC_NODE":342.2264,"ARG_OF_PERICENTER":173.7818,"MEAN_ANOMALY":241.5254,"EPHEMERIS_TYPE":0,"CLASSIFICATION_TYPE":"U","NORAD_CAT_ID":35631,"ELEMENT_SET_NO":999,"REV_AT_EPOCH":88499,"BSTAR":0.00038556024,"MEAN_MOTION_DOT":1.443e-5,"MEAN_MOTION_DDOT":0},{"OBJECT_NAME":"IRIDIUM 33 DEB","OBJECT_ID":"1997-051RJ","EPOCH":"2026-03-14T11:37:03.713664","MEAN_MOTION":14.22406186,"ECCENTRICITY":0.01536795,"INCLINATION":86.1044,"RA_OF_ASC_NODE":340.8649,"ARG_OF_PERICENTER":348.2889,"MEAN_ANOMALY":190.5027,"EPHEMERIS_TYPE":0,"CLASSIFICATION_TYPE":"U","NORAD_CAT_ID":35680,"ELEMENT_SET_NO":999,"REV_AT_EPOCH":62004,"BSTAR":0.0027641883,"MEAN_MOTION_DOT":6.962e-5,"MEAN_MOTION_DDOT":0},{"OBJECT_NAME":"IRIDIUM 33 DEB","OBJECT_ID":"1997-051RX","EPOCH":"2026-03-14T07:34:50.317824","MEAN_MOTION":14.72464995,"ECCENTRICITY":0.00188164,"INCLINATION":86.3245,"RA_OF_ASC_NODE":284.009,"ARG_OF_PERICENTER":240.6181,"MEAN_ANOMALY":119.3158,"EPHEMERIS_TYPE":0,"CLASSIFICATION_TYPE":"U","NORAD_CAT_ID":35744,"ELEMENT_SET_NO":999,"REV_AT_EPOCH":88678,"BSTAR":0.0010662682,"MEAN_MOTION_DOT":6.805e-5,"MEAN_MOTION_DDOT":0},{"OBJECT_NAME":"IRIDIUM 33 DEB","OBJECT_ID":"1997-051SF","EPOCH":"2026-03-14T07:57:42.369696","MEAN_MOTION":14.85854789,"ECCENTRICITY":0.00103848,"INCLINATION":86.3322,"RA_OF_ASC_NODE":287.7871,"ARG_OF_PERICENTER":189.5842,"MEAN_ANOMALY":170.5186,"EPHEMERIS_TYPE":0,"CLASSIFICATION_TYPE":"U","NORAD_CAT_ID":35797,"ELEMENT_SET_NO":999,"REV_AT_EPOCH":88699,"BSTAR":0.001782072,"MEAN_MOTION_DOT":0.00015572,"MEAN_MOTION_DDOT":0},{"OBJECT_NAME":"IRIDIUM 33 DEB","OBJECT_ID":"1997-051SQ","EPOCH":"2026-03-14T11:46:20.666208","MEAN_MOTION":14.58537058,"ECCENTRICITY":0.00150518,"INCLINATION":86.3485,"RA_OF_ASC_NODE":340.2082,"ARG_OF_PERICENTER":112.5295,"MEAN_ANOMALY":247.7509,"EPHEMERIS_TYPE":0,"CLASSIFICATION_TYPE":"U","NORAD_CAT_ID":35806,"ELEMENT_SET_NO":999,"REV_AT_EPOCH":87661,"BSTAR":0.0013383214,"MEAN_MOTION_DOT":6.25e-5,"MEAN_MOTION_DDOT":0},{"OBJECT_NAME":"IRIDIUM 33 DEB","OBJECT_ID":"1997-051ST","EPOCH":"2026-03-14T07:52:32.204928","MEAN_MOTION":14.78043742,"ECCENTRICITY":0.00104087,"INCLINATION":86.3243,"RA_OF_ASC_NODE":293.565,"ARG_OF_PERICENTER":295.5131,"MEAN_ANOMALY":64.5012,"EPHEMERIS_TYPE":0,"CLASSIFICATION_TYPE":"U","NORAD_CAT_ID":35809,"ELEMENT_SET_NO":999,"REV_AT_EPOCH":88159,"BSTAR":0.0014655156,"MEAN_MOTION_DOT":0.00010621,"MEAN_MOTION_DDOT":0},{"OBJECT_NAME":"IRIDIUM 33 DEB","OBJECT_ID":"1997-051SW","EPOCH":"2026-03-12T19:46:14.131488","MEAN_MOTION":14.43577581,"ECCENTRICITY":0.00155164,"INCLINATION":86.3786,"RA_OF_ASC_NODE":20.3748,"ARG_OF_PERICENTER":234.538,"MEAN_ANOMALY":125.4373,"EPHEMERIS_TYPE":0,"CLASSIFICATION_TYPE":"U","NORAD_CAT_ID":35846,"ELEMENT_SET_NO":999,"REV_AT_EPOCH":72628,"BSTAR":0.00072950519,"MEAN_MOTION_DOT":2.493e-5,"MEAN_MOTION_DDOT":0},{"OBJECT_NAME":"IRIDIUM 33 DEB","OBJECT_ID":"1997-051SY","EPOCH":"2026-03-13T11:21:09.083520","MEAN_MOTION":14.81342692,"ECCENTRICITY":0.00050687,"INCLINATION":86.3922,"RA_OF_ASC_NODE":335.2476,"ARG_OF_PERICENTER":249.6875,"MEAN_ANOMALY":110.3803,"EPHEMERIS_TYPE":0,"CLASSIFICATION_TYPE":"U","NORAD_CAT_ID":35848,"ELEMENT_SET_NO":999,"REV_AT_EPOCH":68032,"BSTAR":0.0016479134,"MEAN_MOTION_DOT":0.00012904,"MEAN_MOTION_DDOT":0},{"OBJECT_NAME":"IRIDIUM 33 DEB","OBJECT_ID":"1997-051TA","EPOCH":"2026-03-13T09:35:34.392768","MEAN_MOTION":14.81426733,"ECCENTRICITY":0.0007098,"INCLINATION":86.348,"RA_OF_ASC_NODE":302.9254,"ARG_OF_PERICENTER":243.0294,"MEAN_ANOMALY":117.0203,"EPHEMERIS_TYPE":0,"CLASSIFICATION_TYPE":"U","NORAD_CAT_ID":35850,"ELEMENT_SET_NO":999,"REV_AT_EPOCH":72698,"BSTAR":0.0012120357,"MEAN_MOTION_DOT":9.515e-5,"MEAN_MOTION_DDOT":0},{"OBJECT_NAME":"IRIDIUM 33 DEB","OBJECT_ID":"1997-051TY","EPOCH":"2026-03-13T21:20:34.271520","MEAN_MOTION":14.83743381,"ECCENTRICITY":0.00085311,"INCLINATION":86.3412,"RA_OF_ASC_NODE":301.2105,"ARG_OF_PERICENTER":236.1529,"MEAN_ANOMALY":123.8883,"EPHEMERIS_TYPE":0,"CLASSIFICATION_TYPE":"U","NORAD_CAT_ID":35915,"ELEMENT_SET_NO":999,"REV_AT_EPOCH":9436,"BSTAR":0.0015482658,"MEAN_MOTION_DOT":0.00012849,"MEAN_MOTION_DDOT":0},{"OBJECT_NAME":"IRIDIUM 33 DEB","OBJECT_ID":"1997-051UB","EPOCH":"2026-03-14T04:55:36.331104","MEAN_MOTION":14.52133613,"ECCENTRICITY":0.00237285,"INCLINATION":86.401,"RA_OF_ASC_NODE":36.5091,"ARG_OF_PERICENTER":222.0278,"MEAN_ANOMALY":201.4734,"EPHEMERIS_TYPE":0,"CLASSIFICATION_TYPE":"U","NORAD_CAT_ID":35918,"ELEMENT_SET_NO":999,"REV_AT_EPOCH":86534,"BSTAR":0.0011490079,"MEAN_MOTION_DOT":4.69e-5,"MEAN_MOTION_DDOT":0},{"OBJECT_NAME":"IRIDIUM 33 DEB","OBJECT_ID":"1997-051UN","EPOCH":"2026-03-08T06:46:46.443072","MEAN_MOTION":15.09674475,"ECCENTRICITY":0.00152582,"INCLINATION":86.3393,"RA_OF_ASC_NODE":271.884,"ARG_OF_PERICENTER":69.7211,"MEAN_ANOMALY":290.5665,"EPHEMERIS_TYPE":0,"CLASSIFICATION_TYPE":"U","NORAD_CAT_ID":35929,"ELEMENT_SET_NO":999,"REV_AT_EPOCH":89067,"BSTAR":0.003863549,"MEAN_MOTION_DOT":0.00062834,"MEAN_MOTION_DDOT":0},{"OBJECT_NAME":"IRIDIUM 33 DEB","OBJECT_ID":"1997-051US","EPOCH":"2026-03-13T12:49:05.153088","MEAN_MOTION":14.41690082,"ECCENTRICITY":0.00164516,"INCLINATION":86.346,"RA_OF_ASC_NODE":356.4266,"ARG_OF_PERICENTER":286.0022,"MEAN_ANOMALY":199.7841,"EPHEMERIS_TYPE":0,"CLASSIFICATION_TYPE":"U","NORAD_CAT_ID":36011,"ELEMENT_SET_NO":999,"REV_AT_EPOCH":65848,"BSTAR":0.00055963021,"MEAN_MOTION_DOT":1.845e-5,"MEAN_MOTION_DDOT":0},{"OBJECT_NAME":"IRIDIUM 33 DEB","OBJECT_ID":"1997-051UT","EPOCH":"2026-03-12T12:08:14.208864","MEAN_MOTION":14.20642736,"ECCENTRICITY":0.02163933,"INCLINATION":86.4393,"RA_OF_ASC_NODE":271.2866,"ARG_OF_PERICENTER":336.4342,"MEAN_ANOMALY":22.7043,"EPHEMERIS_TYPE":0,"CLASSIFICATION_TYPE":"U","NORAD_CAT_ID":36012,"ELEMENT_SET_NO":999,"REV_AT_EPOCH":66758,"BSTAR":0.0016494579,"MEAN_MOTION_DOT":4.514e-5,"MEAN_MOTION_DDOT":0},{"OBJECT_NAME":"IRIDIUM 33 DEB","OBJECT_ID":"1997-051VK","EPOCH":"2026-03-08T19:51:10.655424","MEAN_MOTION":15.00290565,"ECCENTRICITY":0.00168472,"INCLINATION":86.319,"RA_OF_ASC_NODE":266.0445,"ARG_OF_PERICENTER":92.2879,"MEAN_ANOMALY":268.0282,"EPHEMERIS_TYPE":0,"CLASSIFICATION_TYPE":"U","NORAD_CAT_ID":36028,"ELEMENT_SET_NO":999,"REV_AT_EPOCH":88413,"BSTAR":0.0028450528,"MEAN_MOTION_DOT":0.00035903,"MEAN_MOTION_DDOT":0}]
